     3.04           N: GNSS NAV DATA    M: MIXED            RINEX VERSION / TYPE
JPS2RIN v.2.1.223   JAVAD GNSS          20240227 190112 UTC PGM / RUN BY / DATE
    18                                                      LEAP SECONDS
GAL    1.5700D+02 -3.9063D-02  2.5024D-03  0.0000D+00       IONOSPHERIC CORR
BDSA   6.8563D-41  2.3385D-41  2.3390D-41  6.9328D-41 P  2  IONOSPHERIC CORR
BDSB   2.2802D-41  0.0000D+00  2.2914D-41  6.8009D-33 P  2  IONOSPHERIC CORR
BDSA   6.8563D-41  2.3385D-41  2.3390D-41  6.9328D-41 P  5  IONOSPHERIC CORR
BDSB   2.2802D-41  0.0000D+00  2.2914D-41  6.8009D-33 P  5  IONOSPHERIC CORR
BDSA   6.8563D-41  2.3385D-41  2.3390D-41  6.9328D-41 P  6  IONOSPHERIC CORR
BDSB   2.2802D-41  0.0000D+00  2.2914D-41  6.8009D-33 P  6  IONOSPHERIC CORR
BDSA   6.8563D-41  2.3385D-41  2.3390D-41  6.9328D-41 P  8  IONOSPHERIC CORR
BDSB   2.2802D-41  0.0000D+00  2.2914D-41  6.8009D-33 P  8  IONOSPHERIC CORR
BDSA   6.8563D-41  2.3385D-41  2.3390D-41  6.9328D-41 P  9  IONOSPHERIC CORR
BDSB   2.2802D-41  0.0000D+00  2.2914D-41  6.8009D-33 P  9  IONOSPHERIC CORR
BDSA   6.8563D-41  2.3385D-41  2.3390D-41  6.9328D-41 P 13  IONOSPHERIC CORR
BDSB   2.2802D-41  0.0000D+00  2.2914D-41  6.8009D-33 P 13  IONOSPHERIC CORR
BDSA   6.8563D-41  2.3385D-41  2.3390D-41  6.9328D-41 P 16  IONOSPHERIC CORR
BDSB   2.2802D-41  0.0000D+00  2.2914D-41  6.8009D-33 P 16  IONOSPHERIC CORR
BDSA   6.8563D-41  2.3385D-41  2.3390D-41  6.9328D-41 P 19  IONOSPHERIC CORR
BDSB   2.2802D-41  0.0000D+00  2.2914D-41  6.8009D-33 P 19  IONOSPHERIC CORR
BDSA   6.8563D-41  2.3385D-41  2.3390D-41  6.9328D-41 P 20  IONOSPHERIC CORR
BDSB   2.2802D-41  0.0000D+00  2.2914D-41  6.8009D-33 P 20  IONOSPHERIC CORR
BDSA   6.8563D-41  2.3385D-41  2.3390D-41  6.9328D-41 P 24  IONOSPHERIC CORR
BDSB   2.2802D-41  0.0000D+00  2.2914D-41  6.8009D-33 P 24  IONOSPHERIC CORR
BDSA   6.8563D-41  2.3385D-41  2.3390D-41  6.9328D-41 P 26  IONOSPHERIC CORR
BDSB   2.2802D-41  0.0000D+00  2.2914D-41  6.8009D-33 P 26  IONOSPHERIC CORR
BDSA   6.8563D-41  2.3385D-41  2.3390D-41  6.9328D-41 P 27  IONOSPHERIC CORR
BDSB   2.2802D-41  0.0000D+00  2.2914D-41  6.8009D-33 P 27  IONOSPHERIC CORR
BDSA   6.8563D-41  2.3385D-41  2.3390D-41  6.9328D-41 P 29  IONOSPHERIC CORR
BDSB   2.2802D-41  0.0000D+00  2.2914D-41  6.8009D-33 P 29  IONOSPHERIC CORR
BDSA   6.8563D-41  2.3385D-41  2.3390D-41  6.9328D-41 P 30  IONOSPHERIC CORR
BDSB   2.2802D-41  0.0000D+00  2.2914D-41  6.8009D-33 P 30  IONOSPHERIC CORR
BDSA   6.8563D-41  2.3385D-41  2.3390D-41  6.9328D-41 P 32  IONOSPHERIC CORR
BDSB   2.2802D-41  0.0000D+00  2.2914D-41  6.8009D-33 P 32  IONOSPHERIC CORR
BDSA   6.8563D-41  2.3385D-41  2.3390D-41  6.9328D-41 P 33  IONOSPHERIC CORR
BDSB   2.2802D-41  0.0000D+00  2.2914D-41  6.8009D-33 P 33  IONOSPHERIC CORR
BDSA   6.8563D-41  2.3385D-41  2.3390D-41  6.9328D-41 P 35  IONOSPHERIC CORR
BDSB   2.2802D-41  0.0000D+00  2.2914D-41  6.8009D-33 P 35  IONOSPHERIC CORR
BDSA   6.8563D-41  2.3385D-41  2.3390D-41  6.9328D-41 P 36  IONOSPHERIC CORR
BDSB   2.2802D-41  0.0000D+00  2.2914D-41  6.8009D-33 P 36  IONOSPHERIC CORR
BDSA   6.8563D-41  2.3385D-41  2.3390D-41  6.9328D-41 P 38  IONOSPHERIC CORR
BDSB   2.2802D-41  0.0000D+00  2.2914D-41  6.8009D-33 P 38  IONOSPHERIC CORR
BDSA   6.8563D-41  2.3385D-41  2.3390D-41  6.9328D-41 P 39  IONOSPHERIC CORR
BDSB   2.2802D-41  0.0000D+00  2.2914D-41  6.8009D-33 P 39  IONOSPHERIC CORR
BDSA   6.8563D-41  2.3385D-41  2.3390D-41  6.9328D-41 P 41  IONOSPHERIC CORR
BDSB   2.2802D-41  0.0000D+00  2.2914D-41  6.8009D-33 P 41  IONOSPHERIC CORR
BDSA   6.8563D-41  2.3385D-41  2.3390D-41  6.9328D-41 P 45  IONOSPHERIC CORR
BDSB   2.2802D-41  0.0000D+00  2.2914D-41  6.8009D-33 P 45  IONOSPHERIC CORR
BDSA   6.8563D-41  2.3385D-41  2.3390D-41  6.9328D-41 P 57  IONOSPHERIC CORR
BDSB   2.2802D-41  0.0000D+00  2.2914D-41  6.8009D-33 P 57  IONOSPHERIC CORR
BDSA   6.8563D-41  2.3385D-41  2.3390D-41  6.9328D-41 P 60  IONOSPHERIC CORR
BDSB   2.2802D-41  0.0000D+00  2.2914D-41  6.8009D-33 P 60  IONOSPHERIC CORR
GPUT  9.3132257462D-10 0.000000000D+00 405504 2303          TIME SYSTEM CORR
GPUT  0.0000000000D+00-3.552713679D-15 405504 2303          TIME SYSTEM CORR
GPUT  9.3132257462D-10 0.000000000D+00 405504 2303          TIME SYSTEM CORR
GLUT  5.5879354477D-09 0.000000000D+00      0    0          TIME SYSTEM CORR
GLGP  1.4901161194D-08 0.000000000D+00      0    0          TIME SYSTEM CORR
GAUT  9.3132257462D-10-8.881784197D-16 172800 2303          TIME SYSTEM CORR
GAGP  1.6007106751D-09 8.881784197D-16 259200 2303          TIME SYSTEM CORR
BDUT  9.3132257462D-10-9.769962617D-15      0  947          TIME SYSTEM CORR
                                                            END OF HEADER
C16 2024 02 27 18 00 00-3.649302525446D-04-2.273736754432D-11 0.000000000000D+00
     1.000000000000D+00-2.077968750000D+02 7.586030274325D-10 2.416129813802D+00
    -6.353948265314D-06 6.992312148213D-03 3.223679959774D-05 6.493135410309D+03
     2.376000000000D+05 1.504085958004D-07 2.790050838074D-01-2.998858690262D-07
     9.632896411315D-01-7.581406250000D+02-2.260123287710D+00-1.692927660089D-09
    -3.242992226500D-10 0.000000000000D+00 9.470000000000D+02
     2.000000000000D+00 0.000000000000D+00-2.700000000000D-09 4.900000000000D-09
     2.378100000000D+05 0.000000000000D+00
C19 2024 02 27 18 00 00-9.231205331162D-04 2.971844992317D-12 0.000000000000D+00
     1.000000000000D+00-4.421875000000D+00 3.916591713194D-09 4.493657255205D-01
    -2.253800630569D-07 1.006503938697D-03 3.136694431305D-06 5.282623407364D+03
     2.376000000000D+05-6.053596735001D-09-1.106553537791D+00-2.793967723846D-09
     9.766801911303D-01 3.054375000000D+02-1.040072829037D+00-7.057436827715D-09
     5.893102614235D-11 0.000000000000D+00 9.470000000000D+02
     2.000000000000D+00 0.000000000000D+00 9.500000000000D-09 9.500000000000D-09
     2.397000000000D+05 0.000000000000D+00
C20 2024 02 27 18 00 00-2.044592984021D-04-3.741895682197D-11 0.000000000000D+00
     1.000000000000D+00-3.843750000000D+00 3.882661728446D-09 7.697749473249D-01
    -1.336447894573D-07 7.933486485854D-04 3.304332494736D-06 5.282625133514D+03
     2.376000000000D+05 1.071020960808D-08-1.105925836216D+00 3.259629011154D-09
     9.766697049335D-01 3.024843750000D+02-6.225931234455D-01-7.031721470853D-09
     9.714690370133D-11 0.000000000000D+00 9.470000000000D+02
     2.000000000000D+00 0.000000000000D+00 1.190000000000D-08 1.190000000000D-08
     2.376000000000D+05 0.000000000000D+00
C24 2024 02 27 18 00 00 9.236325277016D-04 3.481215316015D-11 0.000000000000D+00
     1.000000000000D+00 8.207812500000D+01 4.101242261774D-09 4.183344081644D-01
     3.884546458721D-06 7.900535129011D-04 9.722076356411D-06 5.282644792557D+03
     2.376000000000D+05-2.281740307808D-08 9.865979652511D-01 2.980232238770D-08
     9.450301428130D-01 1.575000000000D+02 8.998573903294D-01-6.909573525757D-09
     3.814444601214D-10 0.000000000000D+00 9.470000000000D+02
     2.000000000000D+00 0.000000000000D+00 3.800000000000D-09 3.800000000000D-09
     2.376000000000D+05 0.000000000000D+00
C26 2024 02 27 18 00 00-2.552695805207D-04-5.442757355922D-12 0.000000000000D+00
     1.000000000000D+00 7.559375000000D+01 4.033382292276D-09 1.341114158011D+00
     3.724358975887D-06 9.141555055976D-04 9.904149919748D-06 5.282625991821D+03
     2.376000000000D+05-2.654269337654D-08 9.634067725934D-01 1.909211277962D-08
     9.466117284181D-01 1.531718750000D+02 7.424342241084D-01-6.891358481313D-09
     3.582292073987D-10 0.000000000000D+00 9.470000000000D+02
     2.000000000000D+00 0.000000000000D+00-5.200000000000D-09-5.200000000000D-09
     2.376000000000D+05 0.000000000000D+00
C27 2024 02 27 18 00 00 2.772063016891D-04 5.397460256518D-12 0.000000000000D+00
     1.000000000000D+00-7.946875000000D+01 3.723012221260D-09 1.958590823489D+00
    -4.039611667395D-06 6.463952595368D-04 9.648967534304D-06 5.282623571396D+03
     2.376000000000D+05 8.381903171539D-09 3.090743878437D+00-3.725290298462D-09
     9.603642306822D-01 1.636093750000D+02 1.117298341926D+00-6.814212410727D-09
    -5.050210361533D-10 0.000000000000D+00 9.470000000000D+02
     2.000000000000D+00 0.000000000000D+00-4.900000000000D-09-4.900000000000D-09
     2.376000000000D+05 0.000000000000D+00
C29 2024 02 27 18 00 00 2.474975772202D-04 5.087485988042D-12 0.000000000000D+00
     1.000000000000D+00-7.156250000000D+01 3.884090359382D-09 6.082721063462D-01
    -3.447290509939D-06 2.062175190076D-04 8.704140782356D-06 5.282618579865D+03
     2.376000000000D+05 1.676380634308D-08 3.050944017367D+00-9.778887033463D-09
     9.583836019867D-01 1.828750000000D+02 9.132624422350D-01-6.871000490464D-09
    -4.278749655669D-10 0.000000000000D+00 9.470000000000D+02
     2.000000000000D+00 0.000000000000D+00-6.000000000000D-10-6.000000000000D-10
     2.376000000000D+05 0.000000000000D+00
C30 2024 02 27 18 00 00-3.070174716413D-05-5.215383680479D-12 0.000000000000D+00
     1.000000000000D+00-7.893750000000D+01 3.796943872239D-09 1.884289449773D+00
    -3.928784281015D-06 5.650694947690D-04 9.010545909405D-06 5.282619686127D+03
     2.376000000000D+05 1.816079020500D-08 3.051435832871D+00-5.122274160385D-09
     9.583366510939D-01 1.769218750000D+02 4.587242904280D-01-6.849571026412D-09
    -4.696624204679D-10 0.000000000000D+00 9.470000000000D+02
     2.000000000000D+00 0.000000000000D+00-1.030000000000D-08-1.030000000000D-08
     2.376000000000D+05 0.000000000000D+00
